     2.10           N: GPS NAV DATA                         RINEX VERSION / TYPE
teqc  2013Mar15     gpsops              20140504 00:27:07UTCPGM / RUN BY / DATE
Linux 2.4.21-27.ELsmp|Opteron|gcc -static|Linux x86_64|=+   COMMENT
GLPS                                    MARKER NAME         COMMENT
42005M002                               MARKER NUMBER       COMMENT
-33801.4662 -6377516.5323 -82154.3508                       COMMENT
                                                            COMMENT
This data is provided as a public service by NASA/JPL.      COMMENT
No warranty is expressed or implied regarding suitability   COMMENT
for use.  For further information, contact:                 COMMENT
Dave Stowers, NASA/JPL m/s 238-600                          COMMENT
4800 Oak Grove Drive, Pasadena CA 91109 USA                 COMMENT
                                                            END OF HEADER
 2 14  5  3  8  0  0.0 4.931730218232D-04 2.160049916711D-12 0.000000000000D+00
    9.200000000000D+01 1.278125000000D+01 5.420940089628D-09-1.262815853646D+00
    8.251518011093D-07 1.349663396832D-02 5.925074219704D-06 5.153592710495D+03
    5.472000000000D+05 2.514570951462D-07-1.225851388214D+00 1.676380634308D-08
    9.389889128858D-01 2.504687500000D+02-2.432721004732D+00-8.360348242062D-09
    3.835874065266D-10 0.000000000000D+00 1.790000000000D+03 0.000000000000D+00
    2.000000000000D+00 0.000000000000D+00-2.048909664154D-08 9.200000000000D+01
    5.400000000000D+05 4.000000000000D+00
 5 14  5  3  8  0  0.0-3.752438351512D-04 2.387423592154D-12 0.000000000000D+00
    4.400000000000D+01-1.625000000000D+01 5.118070331030D-09 1.076868953560D+00
   -5.867332220078D-07 3.562592319213D-03 7.674098014832D-06 5.153582221985D+03
    5.472000000000D+05 6.705522537231D-08-1.581892832529D-01 0.000000000000D+00
    9.476555950765D-01 2.226250000000D+02 3.192759137976D-01-8.291059641628D-09
   -5.107355599004D-10 0.000000000000D+00 1.790000000000D+03 0.000000000000D+00
    2.000000000000D+00 0.000000000000D+00-1.024454832077D-08 4.400000000000D+01
    5.400000000000D+05 4.000000000000D+00
10 14  5  3  8  0  0.0-1.240023411810D-04-1.477928890381D-12 0.000000000000D+00
    8.200000000000D+01-1.415625000000D+01 5.291648989849D-09 1.331100875820D+00
   -5.997717380524D-07 1.352499448694D-02 7.968395948410D-06 5.153724929810D+03
    5.472000000000D+05-2.440065145493D-07-1.407911335444D-01 1.490116119385D-07
    9.424641610953D-01 2.211875000000D+02 8.633903565425D-01-8.457137988029D-09
   -5.228789228631D-10 0.000000000000D+00 1.790000000000D+03 0.000000000000D+00
    2.800000000000D+00 0.000000000000D+00-2.793967723846D-09 8.200000000000D+01
    5.400000000000D+05 4.000000000000D+00
12 14  5  3  8  0  0.0 2.024956047535D-04 2.501110429876D-12 0.000000000000D+00
    5.600000000000D+01-9.056250000000D+01 3.725512325399D-09-2.933535982074D+00
   -4.664063453674D-06 5.119707435369D-03 5.874782800674D-06 5.153637870789D+03
    5.472000000000D+05-3.911554813385D-08 3.026467313243D+00-4.284083843231D-08
    9.876361221402D-01 2.805937500000D+02 4.118408000796D-01-7.753894409397D-09
   -7.036007363663D-11 0.000000000000D+00 1.790000000000D+03 0.000000000000D+00
    2.000000000000D+00 0.000000000000D+00-1.210719347000D-08 5.600000000000D+01
    5.400000000000D+05 4.000000000000D+00
15 14  5  3  8  0  0.0-1.773396506906D-04-2.160049916711D-12 0.000000000000D+00
    6.800000000000D+01 7.018750000000D+01 4.834844247812D-09-4.324342408276D-01
    3.544613718987D-06 6.248844438232D-03 8.977949619293D-06 5.153689908981D+03
    5.472000000000D+05 1.247972249985D-07 8.558868990334D-01 7.078051567078D-08
    9.371926659963D-01 1.950937500000D+02 2.759352935840D-01-8.242129032043D-09
   -2.453673633927D-10 0.000000000000D+00 1.790000000000D+03 0.000000000000D+00
    2.000000000000D+00 0.000000000000D+00-1.024454832077D-08 6.800000000000D+01
    5.400000000000D+05 4.000000000000D+00
17 14  5  3  8  0  0.0-9.007332846522D-05-3.183231456205D-12 0.000000000000D+00
    6.100000000000D+01-4.350000000000D+01 4.303393539329D-09 2.444359097368D-01
   -2.400949597359D-06 9.278666693717D-03 9.873881936073D-06 5.153585680008D+03
    5.472000000000D+05-1.117587089539D-07-2.206440171684D+00 1.192092895508D-07
    9.684224384303D-01 1.972500000000D+02-2.100698848093D+00-7.918901282596D-09
    3.535861568541D-10 0.000000000000D+00 1.790000000000D+03 0.000000000000D+00
    2.000000000000D+00 0.000000000000D+00-1.024454832077D-08 6.100000000000D+01
    5.400000000000D+05 4.000000000000D+00
24 14  5  3  8  0  0.0-2.775248140097D-05-5.684341886081D-13 0.000000000000D+00
    7.800000000000D+01 4.978125000000D+01 4.561618581152D-09-1.674818244731D+00
    2.674758434296D-06 2.062938758172D-03 3.024935722351D-06 5.153737409592D+03
    5.472000000000D+05-6.519258022308D-08 1.929502950377D+00-4.284083843231D-08
    9.567169447695D-01 3.207500000000D+02 3.371641161931D-01-8.280702067336D-09
    6.607418082628D-11 0.000000000000D+00 1.790000000000D+03 0.000000000000D+00
    2.000000000000D+00 0.000000000000D+00 2.793967723846D-09 7.800000000000D+01
    5.400000000000D+05 4.000000000000D+00
25 14  5  3  8  0  0.0 2.314057201147D-05 7.958078640513D-13 0.000000000000D+00
    5.600000000000D+01-9.025000000000D+01 4.016953036503D-09 2.578197019317D+00
   -4.628673195839D-06 3.557272953913D-03 5.584210157394D-06 5.153620731354D+03
    5.472000000000D+05 1.676380634308D-08 2.984336192736D+00-6.519258022308D-08
    9.763340398431D-01 2.799687500000D+02 6.557381496917D-01-7.937116327040D-09
   -7.786038605475D-11 0.000000000000D+00 1.790000000000D+03 0.000000000000D+00
    2.000000000000D+00 0.000000000000D+00 5.122274160385D-09 5.600000000000D+01
    5.400000000000D+05 4.000000000000D+00
26 14  5  3  8  0  0.0 9.035831317306D-05-1.159605744760D-11 0.000000000000D+00
    2.500000000000D+01 8.612500000000D+01 4.082670059595D-09-9.701778026111D-01
    4.706904292107D-06 2.142470574472D-02 8.940696716309D-06 5.153697919846D+03
    5.472000000000D+05-1.210719347000D-07 9.901355527887D-01 4.693865776062D-07
    9.753378833320D-01 2.176562500000D+02 1.281136174247D+00-8.068550373224D-09
   -1.521491947675D-10 0.000000000000D+00 1.790000000000D+03 0.000000000000D+00
    2.000000000000D+00 0.000000000000D+00-6.053596735001D-09 2.500000000000D+01
    5.400000000000D+05 4.000000000000D+00
18 14  5  3  8  0  0.0 3.169463016093D-04 2.273736754432D-12 0.000000000000D+00
    1.700000000000D+01-1.862500000000D+01 5.459513124921D-09 1.857287522292D+00
   -1.238659024239D-06 1.518693019170D-02 8.016824722290D-06 5.153689556122D+03
    5.472000000000D+05-2.142041921616D-07-1.629408953023D-01-3.334134817123D-07
    9.262158854779D-01 2.097500000000D+02-2.043837157793D+00-8.359633926594D-09
   -4.589476884420D-10 0.000000000000D+00 1.790000000000D+03 0.000000000000D+00
    2.000000000000D+00 0.000000000000D+00-1.117587089539D-08 1.700000000000D+01
    5.426100000000D+05 4.000000000000D+00
29 14  5  3  8  0  0.0 5.298391915858D-04 2.728484105319D-12 0.000000000000D+00
    4.700000000000D+01-3.009375000000D+01 4.180531278765D-09 3.034747072620D+00
   -1.713633537292D-06 1.633574604057D-03 1.012906432152D-05 5.153716632843D+03
    5.472000000000D+05 1.117587089539D-08-2.197401233896D+00 3.725290298462D-08
    9.691450965548D-01 1.845937500000D+02-8.923314565469D-01-7.756037355802D-09
    4.121600252623D-10 0.000000000000D+00 1.790000000000D+03 0.000000000000D+00
    2.000000000000D+00 0.000000000000D+00-9.778887033463D-09 4.700000000000D+01
    5.444400000000D+05 4.000000000000D+00
 2 14  5  3 10  0  0.0 4.931883886456D-04 2.160049916711D-12 0.000000000000D+00
    9.300000000000D+01 1.203125000000D+01 5.491300163265D-09-2.126196841661D-01
    8.177012205124D-07 1.349590020254D-02 6.614252924919D-06 5.153590938568D+03
    5.544000000000D+05 4.842877388000D-08-1.225912326066D+00 1.564621925354D-07
    9.389905440395D-01 2.440000000000D+02-2.432679626094D+00-8.587500561011D-09
    3.503717372464D-10 0.000000000000D+00 1.790000000000D+03 0.000000000000D+00
    2.000000000000D+00 0.000000000000D+00-2.048909664154D-08 9.300000000000D+01
    5.472000000000D+05 4.000000000000D+00
 5 14  5  3 10  0  0.0-3.752266056836D-04 2.387423592154D-12 0.000000000000D+00
    8.500000000000D+01-1.215625000000D+01 5.169143887020D-09 2.127370989952D+00
   -5.420297384262D-07 3.562606987543D-03 7.620081305504D-06 5.153580467224D+03
    5.544000000000D+05-1.098960638046D-07-1.582495818103D-01 6.705522537231D-08
    9.476526107236D-01 2.277500000000D+02 3.190162765598D-01-8.218199463852D-09
   -3.671581507536D-10 0.000000000000D+00 1.790000000000D+03 0.000000000000D+00
    2.000000000000D+00 0.000000000000D+00-1.024454832077D-08 8.500000000000D+01
    5.472000000000D+05 4.000000000000D+00
12 14  5  3 10  0  0.0 2.025132998824D-04 2.501110429876D-12 0.000000000000D+00
    5.700000000000D+01-9.134375000000D+01 3.742655896641D-09-1.883462056955D+00
   -4.716217517853D-06 5.120007554069D-03 5.554407835007D-06 5.153636648178D+03
    5.544000000000D+05-4.470348358154D-08 3.026411540954D+00-9.499490261078D-08
    9.876355998784D-01 2.866250000000D+02 4.119640231323D-01-7.756751671271D-09
   -9.214669542259D-11 0.000000000000D+00 1.790000000000D+03 0.000000000000D+00
    2.000000000000D+00 0.000000000000D+00-1.210719347000D-08 5.700000000000D+01
    5.472000000000D+05 4.000000000000D+00
15 14  5  3 10  0  0.0-1.773550175130D-04-2.160049916711D-12 0.000000000000D+00
    7.400000000000D+01 6.146875000000D+01 5.003779856087D-09 6.177676969385D-01
    3.380700945854D-06 6.247026030906D-03 9.167939424515D-06 5.153686431885D+03
    5.544000000000D+05 4.284083843231D-08 8.558274240989D-01 9.872019290924D-08
    9.371907700545D-01 1.855000000000D+02 2.759083246892D-01-8.263558496095D-09
   -2.600108304947D-10 0.000000000000D+00 1.790000000000D+03 0.000000000000D+00
    2.000000000000D+00 0.000000000000D+00-1.024454832077D-08 7.400000000000D+01
    5.472000000000D+05 4.000000000000D+00
